[Satellite]
VERSION=1.1
NAME=INTERCOSMOS 24
NICKNAME=INTERCOSMOS 24
TLE1=1 20261U 89080A   18020.81776525 -.00000038  00000-0 -12889-4 0  9993
TLE2=2 20261  82.5941 228.9678 1203504 314.9095  36.0194 12.55954228293280
